*******************************************************************************
 Revised: April 12, 2021               Jupiter                              599
 
 PHYSICAL DATA:
  Mass x 10^22 (g)      = 189818722 +- 8817 Density (g/cm^3)  = 1.3262 +- .0003
  Equat. radius (1 bar) = 71492+-4 km       Polar radius (km)     = 66854+-10
  Vol. Mean Radius (km) = 69911+-6          Flattening            = 0.06487
  Geometric Albedo      = 0.52              Rocky core mass (Mc/M)= 0.0261
  Sid. rot. period (III)= 9h 55m 29.71 s    Sid. rot. rate (rad/s)= 0.00017585
  Mean solar day, hrs   = ~9.9259         
  GM (km^3/s^2)         = 126686531.900     GM 1-sigma (km^3/s^2) =  +- 1.2732
  Equ. grav, ge (m/s^2) = 24.79             Pol. grav, gp (m/s^2) =  28.34
  Vis. magnitude V(1,0) = -9.40
  Vis. mag. (opposition)= -2.70             Obliquity to orbit    =  3.13 deg
  Sidereal orbit period = 11.861982204 y    Sidereal orbit period = 4332.589 d
  Mean daily motion     = 0.0831294 deg/d   Mean orbit speed, km/s= 13.0697
  Atmos. temp. (1 bar)  = 165+-5 K          Escape speed, km/s    =  59.5           
  A_roche(ice)/Rp       =  2.76             Hill's sphere rad. Rp = 740
                                 Perihelion   Aphelion     Mean
  Solar Constant (W/m^2)         56           46           51
  Maximum Planetary IR (W/m^2)   13.7         13.4         13.6
  Minimum Planetary IR (W/m^2)   13.7         13.4         13.6
*******************************************************************************


*******************************************************************************
Ephemeris / API_USER Mon Oct 18 09:40:11 2021 Pasadena, USA      / Horizons    
*******************************************************************************
Target body name: Jupiter (599)                   {source: jup365_merged}
Center body name: James Webb Space Telescope (spacecraft) (-170) {source: JWST_PRELAUNCH_MERGED}
Center-site name: BODYCENTRIC
*******************************************************************************
Start time      : A.D. 2022-Jul-10 00:00:00.0000 UT      
Stop  time      : A.D. 2022-Jul-12 00:00:00.0000 UT      
Step-size       : 1 minutes
*******************************************************************************
Target pole/equ : IAU_JUPITER                     {West-longitude positive}
Target radii    : 71492.0 x 71492.0 x 66854.0 km  {Equator, meridian, pole}    
Center geodetic : 0.00000000,0.00000000,0.0000000 {E-lon(deg),Lat(deg),Alt(km)}
Center cylindric: 0.00000000,0.00000000,0.0000000 {E-lon(deg),Dxy(km),Dz(km)}
Center pole/equ : ICRF
Center radii    : (undefined)                                                  
Target primary  : Sun
Vis. interferer : None
Rel. light bend : Sun                             {source: JWST_PRELAUNCH_MERGE
Rel. lght bnd GM: 1.3271E+11 km^3/s^2                                          
Atmos refraction: NO (AIRLESS)
RA format       : HMS
Time format     : CAL 
EOP file        : eop.211014.p220107                                           
EOP coverage    : DATA-BASED 1962-JAN-20 TO 2021-OCT-14. PREDICTS-> 2022-JAN-06
Units conversion: 1 au= 149597870.700 km, c= 299792.458 km/s, 1 day= 86400.0 s 
Table cut-offs 1: Elevation (-90.0deg=NO ),Airmass     n.a.    , Daylight (NO )
Table cut-offs 2: Solar elongation (  0.0,180.0=NO ),Local Hour Angle( 0.0=NO )
Table cut-offs 3: RA/DEC angular rate (     0.0=NO )                           
******************************************************************************************************************************************************************************
 Date__(UT)__HR:MN     R.A._____(ICRF)_____DEC    APmag   S-brt             delta      deldot     S-O-T /r     S-T-O  Sky_motion  Sky_mot_PA  RelVel-ANG  Lun_Sky_Brt  sky_SNR
******************************************************************************************************************************************************************************
$$SOE
 2022-Jul-10 17:34     00 31 29.04 +01 58 49.1   -2.485   5.364  4.67847294881516 -26.2711612  100.0295 /T   11.7722   0.1461134   71.716416   -72.53991         n.a.     n.a.
 2022-Jul-10 17:35     00 31 29.05 +01 58 49.1   -2.485   5.364  4.67846241220498 -26.2711091  100.0301 /T   11.7721   0.1461082   71.716630   -72.54051         n.a.     n.a.
 2022-Jul-10 17:36     00 31 29.06 +01 58 49.2   -2.485   5.364  4.67845187561567 -26.2710571  100.0307 /T   11.7721   0.1461029   71.716844   -72.54111         n.a.     n.a.
 2022-Jul-10 17:37     00 31 29.07 +01 58 49.2   -2.485   5.364  4.67844133904723 -26.2710050  100.0314 /T   11.7721   0.1460976   71.717058   -72.54170         n.a.     n.a.
 2022-Jul-10 17:38     00 31 29.08 +01 58 49.3   -2.485   5.364  4.67843080249969 -26.2709530  100.0320 /T   11.7721   0.1460923   71.717272   -72.54230         n.a.     n.a.
 2022-Jul-10 17:39     00 31 29.09 +01 58 49.3   -2.485   5.364  4.67842026597300 -26.2709009  100.0326 /T   11.7721   0.1460870   71.717487   -72.54290         n.a.     n.a.
 2022-Jul-10 17:40     00 31 29.09 +01 58 49.3   -2.485   5.364  4.67840972946720 -26.2708489  100.0332 /T   11.7720   0.1460817   71.717701   -72.54350         n.a.     n.a.
 2022-Jul-10 17:41     00 31 29.10 +01 58 49.4   -2.485   5.364  4.67839919298228 -26.2707968  100.0338 /T   11.7720   0.1460765   71.717915   -72.54409         n.a.     n.a.
 2022-Jul-10 17:42     00 31 29.11 +01 58 49.4   -2.485   5.364  4.67838865651825 -26.2707447  100.0344 /T   11.7720   0.1460712   71.718129   -72.54469         n.a.     n.a.
 2022-Jul-10 17:43     00 31 29.12 +01 58 49.5   -2.485   5.364  4.67837812007511 -26.2706926  100.0350 /T   11.7720   0.1460659   71.718344   -72.54529         n.a.     n.a.
 2022-Jul-10 17:44     00 31 29.13 +01 58 49.5   -2.485   5.364  4.67836758365288 -26.2706405  100.0357 /T   11.7719   0.1460606   71.718558   -72.54588         n.a.     n.a.
 2022-Jul-10 17:45     00 31 29.14 +01 58 49.6   -2.485   5.364  4.67835704725152 -26.2705884  100.0363 /T   11.7719   0.1460553   71.718772   -72.54648         n.a.     n.a.
 2022-Jul-10 17:46     00 31 29.15 +01 58 49.6   -2.485   5.364  4.67834651087106 -26.2705363  100.0369 /T   11.7719   0.1460501   71.718986   -72.54708         n.a.     n.a.
 2022-Jul-10 17:47     00 31 29.16 +01 58 49.7   -2.485   5.364  4.67833597451150 -26.2704842  100.0375 /T   11.7719   0.1460448   71.719201   -72.54768         n.a.     n.a.
 2022-Jul-10 17:48     00 31 29.17 +01 58 49.7   -2.485   5.364  4.67832543817284 -26.2704321  100.0381 /T   11.7719   0.1460395   71.719415   -72.54827         n.a.     n.a.
 2022-Jul-10 17:49     00 31 29.18 +01 58 49.8   -2.485   5.364  4.67831490185509 -26.2703800  100.0387 /T   11.7718   0.1460342   71.719629   -72.54887         n.a.     n.a.
 2022-Jul-10 17:50     00 31 29.19 +01 58 49.8   -2.485   5.364  4.67830436555826 -26.2703278  100.0394 /T   11.7718   0.1460289   71.719844   -72.54947         n.a.     n.a.
 2022-Jul-10 17:51     00 31 29.20 +01 58 49.9   -2.485   5.364  4.67829382928232 -26.2702757  100.0400 /T   11.7718   0.1460236   71.720058   -72.55007         n.a.     n.a.
 2022-Jul-10 17:52     00 31 29.21 +01 58 49.9   -2.485   5.364  4.67828329302730 -26.2702236  100.0406 /T   11.7718   0.1460184   71.720272   -72.55066         n.a.     n.a.
 2022-Jul-10 17:53     00 31 29.21 +01 58 49.9   -2.485   5.364  4.67827275679318 -26.2701714  100.0412 /T   11.7717   0.1460131   71.720487   -72.55126         n.a.     n.a.
 2022-Jul-10 17:54     00 31 29.22 +01 58 50.0   -2.485   5.364  4.67826222057999 -26.2701192  100.0418 /T   11.7717   0.1460078   71.720701   -72.55186         n.a.     n.a.
 2022-Jul-10 17:55     00 31 29.23 +01 58 50.0   -2.485   5.364  4.67825168438771 -26.2700671  100.0424 /T   11.7717   0.1460025   71.720915   -72.55245         n.a.     n.a.
 2022-Jul-10 17:56     00 31 29.24 +01 58 50.1   -2.485   5.364  4.67824114821638 -26.2700149  100.0431 /T   11.7717   0.1459972   71.721130   -72.55305         n.a.     n.a.
 2022-Jul-10 17:57     00 31 29.25 +01 58 50.1   -2.485   5.364  4.67823061206595 -26.2699627  100.0437 /T   11.7716   0.1459920   71.721344   -72.55365         n.a.     n.a.
 2022-Jul-10 17:58     00 31 29.26 +01 58 50.2   -2.485   5.364  4.67822007593645 -26.2699106  100.0443 /T   11.7716   0.1459867   71.721559   -72.55425         n.a.     n.a.
 2022-Jul-10 17:59     00 31 29.27 +01 58 50.2   -2.485   5.364  4.67820953982787 -26.2698584  100.0449 /T   11.7716   0.1459814   71.721773   -72.55484         n.a.     n.a.
 2022-Jul-10 18:00     00 31 29.28 +01 58 50.3   -2.485   5.364  4.67819900374023 -26.2698062  100.0455 /T   11.7716   0.1459761   71.721988   -72.55544         n.a.     n.a.
 2022-Jul-10 18:01     00 31 29.29 +01 58 50.3   -2.485   5.364  4.67818846767352 -26.2697540  100.0461 /T   11.7716   0.1459708   71.722202   -72.55604         n.a.     n.a.
 2022-Jul-10 18:02     00 31 29.30 +01 58 50.4   -2.485   5.364  4.67817793162777 -26.2697018  100.0467 /T   11.7715   0.1459656   71.722417   -72.55663         n.a.     n.a.
 2022-Jul-10 18:03     00 31 29.31 +01 58 50.4   -2.485   5.364  4.67816739560294 -26.2696496  100.0474 /T   11.7715   0.1459603   71.722631   -72.55723         n.a.     n.a.
 2022-Jul-10 18:04     00 31 29.32 +01 58 50.4   -2.485   5.364  4.67815685959905 -26.2695973  100.0480 /T   11.7715   0.1459550   71.722846   -72.55783         n.a.     n.a.
 2022-Jul-10 18:05     00 31 29.33 +01 58 50.5   -2.485   5.364  4.67814632361611 -26.2695451  100.0486 /T   11.7715   0.1459497   71.723060   -72.55843         n.a.     n.a.
 2022-Jul-10 18:06     00 31 29.33 +01 58 50.5   -2.485   5.364  4.67813578765411 -26.2694929  100.0492 /T   11.7714   0.1459444   71.723275   -72.55902         n.a.     n.a.
 2022-Jul-10 18:07     00 31 29.34 +01 58 50.6   -2.485   5.364  4.67812525171306 -26.2694407  100.0498 /T   11.7714   0.1459391   71.723489   -72.55962         n.a.     n.a.
